[{"OBJECT_NAME":"XINGYUN-2 01","OBJECT_ID":"2020-028A","EPOCH":"2026-03-09T23:27:57.512736","MEAN_MOTION":15.11323975,"ECCENTRICITY":0.00090563,"INCLINATION":97.4853,"RA_OF_ASC_NODE":63.3977,"ARG_OF_PERICENTER":174.572,"MEAN_ANOMALY":185.561,"EPHEMERIS_TYPE":0,"CLASSIFICATION_TYPE":"U","NORAD_CAT_ID":45602,"ELEMENT_SET_NO":999,"REV_AT_EPOCH":31985,"BSTAR":0.000253969,"MEAN_MOTION_DOT":4.22e-5,"MEAN_MOTION_DDOT":0},{"OBJECT_NAME":"STARLINK-4662","OBJECT_ID":"2022-107AQ","EPOCH":"2026-03-09T22:26:24.057024","MEAN_MOTION":15.0884063,"ECCENTRICITY":0.0001431,"INCLINATION":53.2171,"RA_OF_ASC_NODE":262.7944,"ARG_OF_PERICENTER":86.0279,"MEAN_ANOMALY":274.0877,"EPHEMERIS_TYPE":0,"CLASSIFICATION_TYPE":"U","NORAD_CAT_ID":53738,"ELEMENT_SET_NO":999,"REV_AT_EPOCH":19448,"BSTAR":3.5655961e-5,"MEAN_MOTION_DOT":2.8e-6,"MEAN_MOTION_DDOT":0}]
